{
  "type": "FeatureCollection",
  "features": [
    {
      "type": "Feature",
      "properties": {
        "norad_id": 29930,
        "name": "FENGYUN 1C DEB",
        "group": "fengyun-1c-debris",
        "lat": 44.710123104828284,
        "lon": 50.9451761859413,
        "alt_km": 760.2416132234794,
        "timestamp": "2025-12-05T19:30:25.837952+00:00",
        "meta_object_name": "FENGYUN 1C DEB",
        "meta_object_id": "1999-025JC",
        "meta_epoch": "2025-12-04T16:09:53.182080",
        "meta_mean_motion": 14.20802971,
        "meta_eccentricity": 0.0164668,
        "meta_inclination": 99.0445,
        "meta_ra_of_asc_node": 220.707,
        "meta_arg_of_pericenter": 76.4895,
        "meta_mean_anomaly": 352.3841,
        "meta_ephemeris_type": 0,
        "meta_classification_type": "U",
        "meta_norad_cat_id": 29930,
        "meta_element_set_no": 999,
        "meta_rev_at_epoch": 97776,
        "meta_bstar": 0.00040192,
        "meta_mean_motion_dot": 9.49e-06,
        "meta_mean_motion_ddot": 0,
        "tle_line1": "1 29930U 99025JC  25338.67353220  .00000949  00000+0  40192-3 0  9997",
        "tle_line2": "2 29930  99.0445 220.7070 0164668  76.4895 352.3841 14.20802971977760"
      },
      "geometry": {
        "type": "Point",
        "coordinates": [
          50.9451761859413,
          44.710123104828284
        ]
      }
    },
    {
      "type": "Feature",
      "properties": {
        "norad_id": 29931,
        "name": "FENGYUN 1C DEB",
        "group": "fengyun-1c-debris",
        "lat": -16.31756390150436,
        "lon": -167.3206626596833,
        "alt_km": 882.6268225149533,
        "timestamp": "2025-12-05T19:30:25.837963+00:00",
        "meta_object_name": "FENGYUN 1C DEB",
        "meta_object_id": "1999-025JD",
        "meta_epoch": "2025-12-05T01:43:53.050656",
        "meta_mean_motion": 14.0388775,
        "meta_eccentricity": 0.00326784,
        "meta_inclination": 98.8605,
        "meta_ra_of_asc_node": 14.5748,
        "meta_arg_of_pericenter": 114.3017,
        "meta_mean_anomaly": 300.5201,
        "meta_ephemeris_type": 0,
        "meta_classification_type": "U",
        "meta_norad_cat_id": 29931,
        "meta_element_set_no": 999,
        "meta_rev_at_epoch": 96705,
        "meta_bstar": 0.00016297348,
        "meta_mean_motion_dot": 2.16e-06,
        "meta_mean_motion_ddot": 0,
        "tle_line1": "1 29931U 99025JD  25339.07214179  .00000216  00000+0  16297-3 0  9998",
        "tle_line2": "2 29931  98.8605  14.5748 0032678 114.3017 300.5201 14.03887750967055"
      },
      "geometry": {
        "type": "Point",
        "coordinates": [
          -167.3206626596833,
          -16.31756390150436
        ]
      }
    },
    {
      "type": "Feature",
      "properties": {
        "norad_id": 29932,
        "name": "FENGYUN 1C DEB",
        "group": "fengyun-1c-debris",
        "lat": -31.924778664594857,
        "lon": -3.864384461353193,
        "alt_km": 857.0583834721283,
        "timestamp": "2025-12-05T19:30:25.837973+00:00",
        "meta_object_name": "FENGYUN 1C DEB",
        "meta_object_id": "1999-025JE",
        "meta_epoch": "2025-12-04T23:37:52.007808",
        "meta_mean_motion": 14.16749099,
        "meta_eccentricity": 0.0038627,
        "meta_inclination": 98.6346,
        "meta_ra_of_asc_node": 349.8995,
        "meta_arg_of_pericenter": 92.111,
        "meta_mean_anomaly": 334.5005,
        "meta_ephemeris_type": 0,
        "meta_classification_type": "U",
        "meta_norad_cat_id": 29932,
        "meta_element_set_no": 999,
        "meta_rev_at_epoch": 97474,
        "meta_bstar": 0.00048682,
        "meta_mean_motion_dot": 9.39e-06,
        "meta_mean_motion_ddot": 0,
        "tle_line1": "1 29932U 99025JE  25338.98462972  .00000939  00000+0  48682-3 0  9999",
        "tle_line2": "2 29932  98.6346 349.8995 0038627  92.1110 334.5005 14.16749099974741"
      },
      "geometry": {
        "type": "Point",
        "coordinates": [
          -3.864384461353193,
          -31.924778664594857
        ]
      }
    },
    {
      "type": "Feature",
      "properties": {
        "norad_id": 29933,
        "name": "FENGYUN 1C DEB",
        "group": "fengyun-1c-debris",
        "lat": -81.13024369598573,
        "lon": -178.16786563661987,
        "alt_km": 682.8015412556897,
        "timestamp": "2025-12-05T19:30:25.837983+00:00",
        "meta_object_name": "FENGYUN 1C DEB",
        "meta_object_id": "1999-025JF",
        "meta_epoch": "2025-12-05T00:30:21.023424",
        "meta_mean_motion": 14.65437596,
        "meta_eccentricity": 0.00037431,
        "meta_inclination": 98.7501,
        "meta_ra_of_asc_node": 81.7238,
        "meta_arg_of_pericenter": 1.0578,
        "meta_mean_anomaly": 53.1345,
        "meta_ephemeris_type": 0,
        "meta_classification_type": "U",
        "meta_norad_cat_id": 29933,
        "meta_element_set_no": 999,
        "meta_rev_at_epoch": 98392,
        "meta_bstar": 0.0069760374,
        "meta_mean_motion_dot": 0.00037905,
        "meta_mean_motion_ddot": 0,
        "tle_line1": "1 29933U 99025JF  25339.02107666  .00037905  00000+0  69760-2 0  9994",
        "tle_line2": "2 29933  98.7501  81.7238 0003743   1.0578  53.1345 14.65437596983927"
      },
      "geometry": {
        "type": "Point",
        "coordinates": [
          -178.16786563661987,
          -81.13024369598573
        ]
      }
    },
    {
      "type": "Feature",
      "properties": {
        "norad_id": 29934,
        "name": "FENGYUN 1C DEB",
        "group": "fengyun-1c-debris",
        "lat": -64.98486404463397,
        "lon": -173.50731654355698,
        "alt_km": 625.1941556550355,
        "timestamp": "2025-12-05T19:30:25.837993+00:00",
        "meta_object_name": "FENGYUN 1C DEB",
        "meta_object_id": "1999-025JG",
        "meta_epoch": "2025-12-05T01:58:13.022688",
        "meta_mean_motion": 14.63677519,
        "meta_eccentricity": 0.01005967,
        "meta_inclination": 98.9047,
        "meta_ra_of_asc_node": 25.3366,
        "meta_arg_of_pericenter": 275.9938,
        "meta_mean_anomaly": 82.9804,
        "meta_ephemeris_type": 0,
        "meta_classification_type": "U",
        "meta_norad_cat_id": 29934,
        "meta_element_set_no": 999,
        "meta_rev_at_epoch": 99660,
        "meta_bstar": 0.0018869125,
        "meta_mean_motion_dot": 0.00010519,
        "meta_mean_motion_ddot": 0,
        "tle_line1": "1 29934U 99025JG  25339.08209517  .00010519  00000+0  18869-2 0  9995",
        "tle_line2": "2 29934  98.9047  25.3366 0100596 275.9938  82.9804 14.63677519996605"
      },
      "geometry": {
        "type": "Point",
        "coordinates": [
          -173.50731654355698,
          -64.98486404463397
        ]
      }
    },
    {
      "type": "Feature",
      "properties": {
        "norad_id": 29935,
        "name": "FENGYUN 1C DEB",
        "group": "fengyun-1c-debris",
        "lat": 16.322592658881124,
        "lon": -135.1279471236825,
        "alt_km": 811.9525576552915,
        "timestamp": "2025-12-05T19:30:25.838003+00:00",
        "meta_object_name": "FENGYUN 1C DEB",
        "meta_object_id": "1999-025JH",
        "meta_epoch": "2025-12-05T03:34:34.794048",
        "meta_mean_motion": 14.14232561,
        "meta_eccentricity": 0.01498745,
        "meta_inclination": 98.4625,
        "meta_ra_of_asc_node": 41.7442,
        "meta_arg_of_pericenter": 238.0626,
        "meta_mean_anomaly": 149.3744,
        "meta_ephemeris_type": 0,
        "meta_classification_type": "U",
        "meta_norad_cat_id": 29935,
        "meta_element_set_no": 999,
        "meta_rev_at_epoch": 97435,
        "meta_bstar": 0.00025660183,
        "meta_mean_motion_dot": 5.03e-06,
        "meta_mean_motion_ddot": 0,
        "tle_line1": "1 29935U 99025JH  25339.14901382  .00000503  00000+0  25660-3 0  9992",
        "tle_line2": "2 29935  98.4625  41.7442 0149874 238.0626 149.3744 14.14232561974355"
      },
      "geometry": {
        "type": "Point",
        "coordinates": [
          -135.1279471236825,
          16.322592658881124
        ]
      }
    },
    {
      "type": "Feature",
      "properties": {
        "norad_id": 29936,
        "name": "FENGYUN 1C DEB",
        "group": "fengyun-1c-debris",
        "lat": 38.41719769458082,
        "lon": 86.23090776144086,
        "alt_km": 850.805077981774,
        "timestamp": "2025-12-05T19:30:25.838013+00:00",
        "meta_object_name": "FENGYUN 1C DEB",
        "meta_object_id": "1999-025JJ",
        "meta_epoch": "2025-12-05T07:36:38.074176",
        "meta_mean_motion": 14.35296134,
        "meta_eccentricity": 0.01136233,
        "meta_inclination": 98.6562,
        "meta_ra_of_asc_node": 92.6729,
        "meta_arg_of_pericenter": 209.0386,
        "meta_mean_anomaly": 150.4449,
        "meta_ephemeris_type": 0,
        "meta_classification_type": "U",
        "meta_norad_cat_id": 29936,
        "meta_element_set_no": 999,
        "meta_rev_at_epoch": 98824,
        "meta_bstar": 0.00038950177,
        "meta_mean_motion_dot": 1.153e-05,
        "meta_mean_motion_ddot": 0,
        "tle_line1": "1 29936U 99025JJ  25339.31710734  .00001153  00000+0  38950-3 0  9999",
        "tle_line2": "2 29936  98.6562  92.6729 0113623 209.0386 150.4449 14.35296134988242"
      },
      "geometry": {
        "type": "Point",
        "coordinates": [
          86.23090776144086,
          38.41719769458082
        ]
      }
    }
  ]
}